[{"OBJECT_NAME":"TIANMU-1 22","OBJECT_ID":"2023-208D","EPOCH":"2026-03-09T22:39:05.738688","MEAN_MOTION":15.29457749,"ECCENTRICITY":0.00031332,"INCLINATION":97.4379,"RA_OF_ASC_NODE":184.9419,"ARG_OF_PERICENTER":351.9312,"MEAN_ANOMALY":8.1877,"EPHEMERIS_TYPE":0,"CLASSIFICATION_TYPE":"U","NORAD_CAT_ID":58663,"ELEMENT_SET_NO":999,"REV_AT_EPOCH":12215,"BSTAR":0.00038239675,"MEAN_MOTION_DOT":0.00010851,"MEAN_MOTION_DDOT":0},{"OBJECT_NAME":"STARLINK-35103","OBJECT_ID":"2025-210M","EPOCH":"2026-03-09T21:22:17.484096","MEAN_MOTION":15.30191679,"ECCENTRICITY":0.00012047,"INCLINATION":53.158,"RA_OF_ASC_NODE":306.02,"ARG_OF_PERICENTER":88.3007,"MEAN_ANOMALY":271.8132,"EPHEMERIS_TYPE":0,"CLASSIFICATION_TYPE":"U","NORAD_CAT_ID":65633,"ELEMENT_SET_NO":999,"REV_AT_EPOCH":2776,"BSTAR":0.00058452266,"MEAN_MOTION_DOT":0.00016988,"MEAN_MOTION_DDOT":0}]
